[
    {
        "Altitude(m)": 704205.8770039006,
        "Argument of Periapsis(deg)": 0.011390121186627068,
        "Eccentricity": 0.0,
        "Inclination(deg)": 45.0,
        "Latitude(deg)": 29.682099174004723,
        "Longitude(deg)": -111.2384762909522,
        "Mean Anomaly(deg)": 44.260516647480834,
        "RAAN(deg)": 314.9892480585418,
        "Satellite Name": "Constellation 1 1388",
        "Satellite Number": 1388,
        "Semi-Major Axis(m)": 7083131.272910544,
        "Time(s)": 190
    },
    {
        "Altitude(m)": 704211.5810709927,
        "Argument of Periapsis(deg)": 0.011450069192872472,
        "Eccentricity": 0.0,
        "Inclination(deg)": 45.0,
        "Latitude(deg)": 29.717615197066905,
        "Longitude(deg)": -111.18585799910177,
        "Mean Anomaly(deg)": 44.321217787730724,
        "RAAN(deg)": 314.9891914693762,
        "Satellite Name": "Constellation 1 1388",
        "Satellite Number": 1388,
        "Semi-Major Axis(m)": 7083131.272910544,
        "Time(s)": 191
    },
    {
        "Altitude(m)": 704217.2897758455,
        "Argument of Periapsis(deg)": 0.01151001719911788,
        "Eccentricity": 0.0,
        "Inclination(deg)": 45.0,
        "Latitude(deg)": 29.753106718798886,
        "Longitude(deg)": -111.1331997900718,
        "Mean Anomaly(deg)": 44.38191892798061,
        "RAAN(deg)": 314.98913488021066,
        "Satellite Name": "Constellation 1 1388",
        "Satellite Number": 1388,
        "Semi-Major Axis(m)": 7083131.272910544,
        "Time(s)": 192
    },
    {
        "Altitude(m)": 704223.0030791748,
        "Argument of Periapsis(deg)": 0.011569965205363285,
        "Eccentricity": 0.0,
        "Inclination(deg)": 45.0,
        "Latitude(deg)": 29.78857368734203,
        "Longitude(deg)": -111.08050177391259,
        "Mean Anomaly(deg)": 44.44262006823054,
        "RAAN(deg)": 314.9890782910451,
        "Satellite Name": "Constellation 1 1388",
        "Satellite Number": 1388,
        "Semi-Major Axis(m)": 7083131.272910544,
        "Time(s)": 193
    },
    {
        "Altitude(m)": 704228.7209416714,
        "Argument of Periapsis(deg)": 0.01162991321160869,
        "Eccentricity": 0.0,
        "Inclination(deg)": 45.0,
        "Latitude(deg)": 29.82401605076469,
        "Longitude(deg)": -111.0277635564374,
        "Mean Anomaly(deg)": 44.50332120848043,
        "RAAN(deg)": 314.98902170187955,
        "Satellite Name": "Constellation 1 1388",
        "Satellite Number": 1388,
        "Semi-Major Axis(m)": 7083131.272910544,
        "Time(s)": 194
    },
    {
        "Altitude(m)": 704234.4433240374,
        "Argument of Periapsis(deg)": 0.011689861217854095,
        "Eccentricity": 0.0,
        "Inclination(deg)": 45.0,
        "Latitude(deg)": 29.859433757063,
        "Longitude(deg)": -110.97498524780474,
        "Mean Anomaly(deg)": 44.56402234873032,
        "RAAN(deg)": 314.9889651127139,
        "Satellite Name": "Constellation 1 1388",
        "Satellite Number": 1388,
        "Semi-Major Axis(m)": 7083131.272910544,
        "Time(s)": 195
    },
    {
        "Altitude(m)": 704240.1701869455,
        "Argument of Periapsis(deg)": 0.0117498092240995,
        "Eccentricity": 0.0,
        "Inclination(deg)": 45.0,
        "Latitude(deg)": 29.894826754160427,
        "Longitude(deg)": -110.922166790131,
        "Mean Anomaly(deg)": 44.62472348898021,
        "RAAN(deg)": 314.98890852354833,
        "Satellite Name": "Constellation 1 1388",
        "Satellite Number": 1388,
        "Semi-Major Axis(m)": 7083131.272910544,
        "Time(s)": 196
    },
    {
        "Altitude(m)": 704245.9014910915,
        "Argument of Periapsis(deg)": 0.011809757230344905,
        "Eccentricity": 0.0,
        "Inclination(deg)": 45.0,
        "Latitude(deg)": 29.930194989907626,
        "Longitude(deg)": -110.86930812558833,
        "Mean Anomaly(deg)": 44.68542462923014,
        "RAAN(deg)": 314.9888519343828,
        "Satellite Name": "Constellation 1 1388",
        "Satellite Number": 1388,
        "Semi-Major Axis(m)": 7083131.272910544,
        "Time(s)": 197
    },
    {
        "Altitude(m)": 704251.6371971442,
        "Argument of Periapsis(deg)": 0.011869705236590313,
        "Eccentricity": 0.0,
        "Inclination(deg)": 45.0,
        "Latitude(deg)": 29.965538412082672,
        "Longitude(deg)": -110.81640919640532,
        "Mean Anomaly(deg)": 44.746125769480024,
        "RAAN(deg)": 314.9887953452172,
        "Satellite Name": "Constellation 1 1388",
        "Satellite Number": 1388,
        "Semi-Major Axis(m)": 7083131.272910544,
        "Time(s)": 198
    },
    {
        "Altitude(m)": 704257.3772657773,
        "Argument of Periapsis(deg)": 0.011929653242835719,
        "Eccentricity": 0.0,
        "Inclination(deg)": 45.0,
        "Latitude(deg)": 30.000856968390803,
        "Longitude(deg)": -110.76346994486742,
        "Mean Anomaly(deg)": 44.806826909729914,
        "RAAN(deg)": 314.9887387560517,
        "Satellite Name": "Constellation 1 1388",
        "Satellite Number": 1388,
        "Semi-Major Axis(m)": 7083131.272910544,
        "Time(s)": 199
    }
]